[{"OBJECT_NAME":"STARLINK-5534","OBJECT_ID":"2023-064AF","EPOCH":"2026-03-09T02:31:15.093984","MEAN_MOTION":14.98347696,"ECCENTRICITY":0.00034307,"INCLINATION":69.9988,"RA_OF_ASC_NODE":125.8565,"ARG_OF_PERICENTER":273.9201,"MEAN_ANOMALY":86.1566,"EPHEMERIS_TYPE":0,"CLASSIFICATION_TYPE":"U","NORAD_CAT_ID":56477,"ELEMENT_SET_NO":999,"REV_AT_EPOCH":15565,"BSTAR":-0.00036831184,"MEAN_MOTION_DOT":-4.487e-5,"MEAN_MOTION_DDOT":0},{"OBJECT_NAME":"FENGYUN 1C DEB","OBJECT_ID":"1999-025BRA","EPOCH":"2026-03-07T21:38:03.570144","MEAN_MOTION":15.14550758,"ECCENTRICITY":0.01045185,"INCLINATION":98.8762,"RA_OF_ASC_NODE":52.6466,"ARG_OF_PERICENTER":91.2586,"MEAN_ANOMALY":270.0618,"EPHEMERIS_TYPE":0,"CLASSIFICATION_TYPE":"U","NORAD_CAT_ID":31346,"ELEMENT_SET_NO":999,"REV_AT_EPOCH":773,"BSTAR":0.0014203897,"MEAN_MOTION_DOT":0.00030047,"MEAN_MOTION_DDOT":0}]
